[{"OBJECT_NAME":"STARLINK-35188","OBJECT_ID":"2025-200C","EPOCH":"2026-03-09T17:54:31.856256","MEAN_MOTION":15.05649129,"ECCENTRICITY":6.943e-5,"INCLINATION":97.6033,"RA_OF_ASC_NODE":139.9184,"ARG_OF_PERICENTER":18.8489,"MEAN_ANOMALY":341.2763,"EPHEMERIS_TYPE":0,"CLASSIFICATION_TYPE":"U","NORAD_CAT_ID":65522,"ELEMENT_SET_NO":999,"REV_AT_EPOCH":2914,"BSTAR":0.00037426778,"MEAN_MOTION_DOT":5.343e-5,"MEAN_MOTION_DDOT":0},{"OBJECT_NAME":"OBJECT G","OBJECT_ID":"2025-292G","EPOCH":"2026-03-09T22:41:34.708704","MEAN_MOTION":15.05879657,"ECCENTRICITY":0.00150455,"INCLINATION":97.6425,"RA_OF_ASC_NODE":145.7524,"ARG_OF_PERICENTER":352.95,"MEAN_ANOMALY":7.1513,"EPHEMERIS_TYPE":0,"CLASSIFICATION_TYPE":"U","NORAD_CAT_ID":66999,"ELEMENT_SET_NO":999,"REV_AT_EPOCH":1351,"BSTAR":0.00047153864,"MEAN_MOTION_DOT":6.807e-5,"MEAN_MOTION_DDOT":0}]
